CAPELLA-1
1 48610U 21041A   24015.50000000  .00006000  00000-0  20000-3 0  9995
2 48610  45.0000   0.0000 0001000  90.0000   0.0000 15.40000000100001
CAPELLA-2
1 48611U 21041B   24015.50000000  .00006000  00000-0  20000-3 0  9996
2 48611  45.0000  72.0000 0001000  90.0000 137.0000 15.40000000100013
CAPELLA-3
1 48612U 21041C   24015.50000000  .00006000  00000-0  20000-3 0  9997
2 48612  45.0000 144.0000 0001000  90.0000 274.0000 15.40000000100027
CAPELLA-4
1 48613U 21041D   24015.50000000  .00006000  00000-0  20000-3 0  9998
2 48613  45.0000 216.0000 0001000  90.0000  51.0000 15.40000000100032
CAPELLA-5
1 48614U 21041E   24015.50000000  .00006000  00000-0  20000-3 0  9999
2 48614  45.0000 288.0000 0001000  90.0000 188.0000 15.40000000100044
